FENGYUN 1C DEB          
1 38807U 99025EUX 17346.46977722  .00001968  00000-0  19159-2 0  9997
2 38807  98.4708 233.2281 0237702  40.8748 320.9959 13.68627383357129
